<?xml version="1.0" encoding="UTF-8"?>
<kml xmlns="http://www.opengis.net/kml/2.2" xmlns:gx="http://www.google.com/kml/ext/2.2" xmlns:kml="http://www.opengis.net/kml/2.2" xmlns:atom="http://www.w3.org/2005/Atom">
<Document>
	<name>AM Birth, Brind.kmz</name>
	<StyleMap id="m_ylw-pushpin">
		<Pair>
			<key>normal</key>
			<styleUrl>#s_ylw-pushpin</styleUrl>
		</Pair>
		<Pair>
			<key>highlight</key>
			<styleUrl>#s_ylw-pushpin_hl</styleUrl>
		</Pair>
	</StyleMap>
	<Style id="s_ylw-pushpin">
		<IconStyle>
			<scale>1.1</scale>
			<Icon>
				<href>http://maps.google.com/mapfiles/kml/pushpin/ylw-pushpin.png</href>
			</Icon>
			<hotSpot x="20" y="2" xunits="pixels" yunits="pixels"/>
		</IconStyle>
	</Style>
	<Style id="s_ylw-pushpin_hl">
		<IconStyle>
			<scale>1.3</scale>
			<Icon>
				<href>http://maps.google.com/mapfiles/kml/pushpin/ylw-pushpin.png</href>
			</Icon>
			<hotSpot x="20" y="2" xunits="pixels" yunits="pixels"/>
		</IconStyle>
	</Style>
	<StyleMap id="m_red-pushpin">
		<Pair>
			<key>normal</key>
			<styleUrl>#s_red-pushpin</styleUrl>
		</Pair>
		<Pair>
			<key>highlight</key>
			<styleUrl>#s_red-pushpin_hl</styleUrl>
		</Pair>
	</StyleMap>
	<Style id="s_red-pushpin">
		<IconStyle>
			<scale>1.1</scale>
			<Icon>
				<href>http://maps.google.com/mapfiles/kml/pushpin/red-pushpin.png</href>
			</Icon>
			<hotSpot x="20" y="2" xunits="pixels" yunits="pixels"/>
		</IconStyle>
	</Style>
	<Style id="s_red-pushpin_hl">
		<IconStyle>
			<scale>1.3</scale>
			<Icon>
				<href>http://maps.google.com/mapfiles/kml/pushpin/red-pushpin.png</href>
			</Icon>
			<hotSpot x="20" y="2" xunits="pixels" yunits="pixels"/>
		</IconStyle>
	</Style>
	<Folder>
		<name>AM Birth, Brind</name>
		<visibility>0</visibility>
		<Folder>
			<name>Brindavana</name>
			<visibility>0</visibility>
			<Placemark>
				<name>1AS 2AS 10AS 12AS</name>
				<visibility>0</visibility>
				<LookAt>
					<longitude>76.64809319734266</longitude>
					<latitude>12.66409253405492</latitude>
					<altitude>0</altitude>
					<heading>0.04256520295871395</heading>
					<tilt>0</tilt>
					<range>360.2821108022348</range>
					<gx:altitudeMode>relativeToSeaFloor</gx:altitudeMode>
				</LookAt>
				<styleUrl>#m_red-pushpin</styleUrl>
				<Point>
					<gx:drawOrder>1</gx:drawOrder>
					<coordinates>76.64772082373786,12.6640238453404,0</coordinates>
				</Point>
			</Placemark>
			<Placemark>
				<name>3AS</name>
				<visibility>0</visibility>
				<LookAt>
					<longitude>79.40472897650466</longitude>
					<latitude>11.40186057579982</latitude>
					<altitude>0</altitude>
					<heading>0.6901630268970901</heading>
					<tilt>0</tilt>
					<range>219.8836644973479</range>
					<gx:altitudeMode>relativeToSeaFloor</gx:altitudeMode>
				</LookAt>
				<styleUrl>#m_red-pushpin</styleUrl>
				<Point>
					<gx:drawOrder>1</gx:drawOrder>
					<coordinates>79.40436057656922,11.40168504353919,0</coordinates>
				</Point>
			</Placemark>
			<Placemark>
				<name>4AS</name>
				<visibility>0</visibility>
				<LookAt>
					<longitude>79.78098216574854</longitude>
					<latitude>11.8649460829577</latitude>
					<altitude>0</altitude>
					<heading>0.2663908768058504</heading>
					<tilt>0</tilt>
					<range>579.19274484551</range>
					<gx:altitudeMode>relativeToSeaFloor</gx:altitudeMode>
				</LookAt>
				<styleUrl>#m_red-pushpin</styleUrl>
				<Point>
					<gx:drawOrder>1</gx:drawOrder>
					<coordinates>79.78157075874111,11.86465965508587,0</coordinates>
				</Point>
			</Placemark>
			<Placemark>
				<name>5AS (Lost)</name>
				<visibility>0</visibility>
				<LookAt>
					<longitude>78.39199964052776</longitude>
					<latitude>15.96035559360984</latitude>
					<altitude>0</altitude>
					<heading>0.4445152717900355</heading>
					<tilt>0</tilt>
					<range>72617.90670407632</range>
					<gx:altitudeMode>relativeToSeaFloor</gx:altitudeMode>
				</LookAt>
				<styleUrl>#m_red-pushpin</styleUrl>
				<Point>
					<gx:drawOrder>1</gx:drawOrder>
					<coordinates>78.24986838729265,15.97270258782587,0</coordinates>
				</Point>
			</Placemark>
			<Placemark>
				<name>6AS</name>
				<visibility>0</visibility>
				<LookAt>
					<longitude>78.73809186770497</longitude>
					<latitude>15.12574457570955</latitude>
					<altitude>0</altitude>
					<heading>0.422573975861984</heading>
					<tilt>0</tilt>
					<range>1634.61613378691</range>
					<gx:altitudeMode>relativeToSeaFloor</gx:altitudeMode>
				</LookAt>
				<styleUrl>#m_red-pushpin</styleUrl>
				<Point>
					<gx:drawOrder>1</gx:drawOrder>
					<coordinates>78.73646443043026,15.12375587014307,0</coordinates>
				</Point>
			</Placemark>
			<Placemark>
				<name>7AS 8AS 9AS 11AS 13AS 18AS 41AS 44AS 45AS</name>
				<visibility>0</visibility>
				<LookAt>
					<longitude>78.68854280882938</longitude>
					<latitude>10.8683729568226</latitude>
					<altitude>0</altitude>
					<heading>0.3988447839114578</heading>
					<tilt>0</tilt>
					<range>290.9618022003301</range>
					<gx:altitudeMode>relativeToSeaFloor</gx:altitudeMode>
				</LookAt>
				<styleUrl>#m_red-pushpin</styleUrl>
				<Point>
					<gx:drawOrder>1</gx:drawOrder>
					<coordinates>78.68810418274212,10.86848905529745,0</coordinates>
				</Point>
			</Placemark>
			<Placemark>
				<name>14AS</name>
				<visibility>0</visibility>
				<LookAt>
					<longitude>79.10810072500256</longitude>
					<latitude>10.86045906892672</latitude>
					<altitude>0</altitude>
					<heading>0.4454399960076292</heading>
					<tilt>0</tilt>
					<range>410.0309664511752</range>
					<gx:altitudeMode>relativeToSeaFloor</gx:altitudeMode>
				</LookAt>
				<styleUrl>#m_red-pushpin</styleUrl>
				<Point>
					<gx:drawOrder>1</gx:drawOrder>
					<coordinates>79.10815768315597,10.86000501475537,0</coordinates>
				</Point>
			</Placemark>
			<Placemark>
				<name>15AS</name>
				<visibility>0</visibility>
				<LookAt>
					<longitude>79.72219803325312</longitude>
					<latitude>12.81900874823845</latitude>
					<altitude>0</altitude>
					<heading>0.5746170528339095</heading>
					<tilt>0</tilt>
					<range>302.914078592477</range>
					<gx:altitudeMode>relativeToSeaFloor</gx:altitudeMode>
				</LookAt>
				<styleUrl>#m_red-pushpin</styleUrl>
				<Point>
					<gx:drawOrder>1</gx:drawOrder>
					<coordinates>79.72132120128769,12.8187976294302,0</coordinates>
				</Point>
			</Placemark>
			<Placemark>
				<name>16AS</name>
				<visibility>0</visibility>
				<LookAt>
					<longitude>79.3745126480819</longitude>
					<latitude>10.9605356919793</latitude>
					<altitude>0</altitude>
					<heading>0.5043514667149396</heading>
					<tilt>0</tilt>
					<range>484.8538562652798</range>
					<gx:altitudeMode>relativeToSeaFloor</gx:altitudeMode>
				</LookAt>
				<styleUrl>#m_red-pushpin</styleUrl>
				<Point>
					<gx:drawOrder>1</gx:drawOrder>
					<coordinates>79.37359379684969,10.96003630991219,0</coordinates>
				</Point>
			</Placemark>
			<Placemark>
				<name>17AS</name>
				<visibility>0</visibility>
				<LookAt>
					<longitude>79.62006496954773</longitude>
					<latitude>12.87243898783851</latitude>
					<altitude>0</altitude>
					<heading>0.5638737201478762</heading>
					<tilt>0</tilt>
					<range>498.5720570474433</range>
					<gx:altitudeMode>relativeToSeaFloor</gx:altitudeMode>
				</LookAt>
				<styleUrl>#m_red-pushpin</styleUrl>
				<Point>
					<gx:drawOrder>1</gx:drawOrder>
					<coordinates>79.62006496954773,12.87243898783851,0</coordinates>
				</Point>
			</Placemark>
			<Placemark>
				<name>19AS</name>
				<visibility>0</visibility>
				<LookAt>
					<longitude>79.3035051990443</longitude>
					<latitude>10.97178793067047</latitude>
					<altitude>0</altitude>
					<heading>0.4954954753065251</heading>
					<tilt>0</tilt>
					<range>257.2701338952479</range>
					<gx:altitudeMode>relativeToSeaFloor</gx:altitudeMode>
				</LookAt>
				<styleUrl>#m_red-pushpin</styleUrl>
				<Point>
					<gx:drawOrder>1</gx:drawOrder>
					<coordinates>79.30294357205909,10.97157010313076,0</coordinates>
				</Point>
			</Placemark>
			<Placemark>
				<name>20AS(Lost)</name>
				<visibility>0</visibility>
				<LookAt>
					<longitude>81.89576022056602</longitude>
					<latitude>20.20728996129381</latitude>
					<altitude>0</altitude>
					<heading>-0.2911003187105622</heading>
					<tilt>0</tilt>
					<range>3010667.588876593</range>
					<gx:altitudeMode>relativeToSeaFloor</gx:altitudeMode>
				</LookAt>
				<styleUrl>#m_red-pushpin</styleUrl>
				<Point>
					<gx:drawOrder>1</gx:drawOrder>
					<coordinates>81.89149050972814,26.83512846728541,0</coordinates>
				</Point>
			</Placemark>
			<Placemark>
				<name>21AS 22AS</name>
				<visibility>0</visibility>
				<LookAt>
					<longitude>79.37859624629714</longitude>
					<latitude>10.9703698687117</latitude>
					<altitude>0</altitude>
					<heading>0.5088068083016162</heading>
					<tilt>0</tilt>
					<range>1127.933405599535</range>
					<gx:altitudeMode>relativeToSeaFloor</gx:altitudeMode>
				</LookAt>
				<styleUrl>#m_red-pushpin</styleUrl>
				<Point>
					<gx:drawOrder>1</gx:drawOrder>
					<coordinates>79.37552462576343,10.96807093815775,0</coordinates>
				</Point>
			</Placemark>
			<Placemark>
				<name>23AS</name>
				<visibility>0</visibility>
				<LookAt>
					<longitude>76.68107154906079</longitude>
					<latitude>12.42293493122854</latitude>
					<altitude>0</altitude>
					<heading>-0.03813738393624824</heading>
					<tilt>0</tilt>
					<range>1256.115106873864</range>
					<gx:altitudeMode>relativeToSeaFloor</gx:altitudeMode>
				</LookAt>
				<styleUrl>#m_red-pushpin</styleUrl>
				<Point>
					<gx:drawOrder>1</gx:drawOrder>
					<coordinates>76.67910861044815,12.4219126077282,0</coordinates>
				</Point>
			</Placemark>
			<Placemark>
				<name>24AS</name>
				<visibility>0</visibility>
				<LookAt>
					<longitude>77.78235918031999</longitude>
					<latitude>11.30960898428133</latitude>
					<altitude>0</altitude>
					<heading>0.1783882946157522</heading>
					<tilt>0</tilt>
					<range>920.101865139417</range>
					<gx:altitudeMode>relativeToSeaFloor</gx:altitudeMode>
				</LookAt>
				<styleUrl>#m_red-pushpin</styleUrl>
				<Point>
					<gx:drawOrder>1</gx:drawOrder>
					<coordinates>77.78010453609198,11.31012281605315,0</coordinates>
				</Point>
			</Placemark>
			<Placemark>
				<name>25AS 26AS 30AS 37AS 38AS</name>
				<visibility>0</visibility>
				<LookAt>
					<longitude>79.30790886936832</longitude>
					<latitude>10.97776538820751</latitude>
					<altitude>0</altitude>
					<heading>0.5017153715224184</heading>
					<tilt>0</tilt>
					<range>458.6577337417941</range>
					<gx:altitudeMode>relativeToSeaFloor</gx:altitudeMode>
				</LookAt>
				<styleUrl>#m_red-pushpin</styleUrl>
				<Point>
					<gx:drawOrder>1</gx:drawOrder>
					<coordinates>79.30768190238661,10.97732019273739,0</coordinates>
				</Point>
			</Placemark>
			<Placemark>
				<name>27AS</name>
				<visibility>0</visibility>
				<LookAt>
					<longitude>77.80133894599189</longitude>
					<latitude>16.23712277049562</latitude>
					<altitude>0</altitude>
					<heading>0.1641766407962223</heading>
					<tilt>0</tilt>
					<range>583.6108290442145</range>
					<gx:altitudeMode>relativeToSeaFloor</gx:altitudeMode>
				</LookAt>
				<styleUrl>#m_red-pushpin</styleUrl>
				<Point>
					<gx:drawOrder>1</gx:drawOrder>
					<coordinates>77.79974342765874,16.23702859527452,0</coordinates>
				</Point>
			</Placemark>
			<Placemark>
				<name>28AS</name>
				<visibility>0</visibility>
				<LookAt>
					<longitude>79.88468368190631</longitude>
					<latitude>12.50975342836273</latitude>
					<altitude>0</altitude>
					<heading>0.696512238600032</heading>
					<tilt>0</tilt>
					<range>359.0241152550535</range>
					<gx:altitudeMode>relativeToSeaFloor</gx:altitudeMode>
				</LookAt>
				<styleUrl>#m_red-pushpin</styleUrl>
				<Point>
					<gx:drawOrder>1</gx:drawOrder>
					<coordinates>79.88431459369235,12.50954194307541,0</coordinates>
				</Point>
			</Placemark>
			<Placemark>
				<name>29AS</name>
				<visibility>0</visibility>
				<LookAt>
					<longitude>79.44763884975261</longitude>
					<latitude>12.88539482676315</latitude>
					<altitude>0</altitude>
					<heading>0.6007934385992394</heading>
					<tilt>0</tilt>
					<range>833.2338192846148</range>
					<gx:altitudeMode>relativeToSeaFloor</gx:altitudeMode>
				</LookAt>
				<styleUrl>#m_red-pushpin</styleUrl>
				<Point>
					<gx:drawOrder>1</gx:drawOrder>
					<coordinates>79.44657168417454,12.88480835115147,0</coordinates>
				</Point>
			</Placemark>
			<Placemark>
				<name>31AS</name>
				<visibility>0</visibility>
				<LookAt>
					<longitude>79.49172368569165</longitude>
					<latitude>11.0317516372178</latitude>
					<altitude>0</altitude>
					<heading>0.6157584312433502</heading>
					<tilt>0</tilt>
					<range>978.3242184357048</range>
					<gx:altitudeMode>relativeToSeaFloor</gx:altitudeMode>
				</LookAt>
				<styleUrl>#m_red-pushpin</styleUrl>
				<Point>
					<gx:drawOrder>1</gx:drawOrder>
					<coordinates>79.49278594171217,11.0328606165112,0</coordinates>
				</Point>
			</Placemark>
			<Placemark>
				<name>32AS 34AS 35AS 42AS</name>
				<visibility>0</visibility>
				<LookAt>
					<longitude>79.9053766448254</longitude>
					<latitude>13.142419000068</latitude>
					<altitude>0</altitude>
					<heading>0.7132580466171475</heading>
					<tilt>0</tilt>
					<range>635.942407025946</range>
					<gx:altitudeMode>relativeToSeaFloor</gx:altitudeMode>
				</LookAt>
				<styleUrl>#m_red-pushpin</styleUrl>
				<Point>
					<gx:drawOrder>1</gx:drawOrder>
					<coordinates>79.90510703269047,13.14224153657182,0</coordinates>
				</Point>
			</Placemark>
			<Placemark>
				<name>33AS</name>
				<visibility>0</visibility>
				<LookAt>
					<longitude>79.90773810868819</longitude>
					<latitude>13.14277285533062</latitude>
					<altitude>0</altitude>
					<heading>0.713794938139243</heading>
					<tilt>0</tilt>
					<range>246.4263779333499</range>
					<gx:altitudeMode>relativeToSeaFloor</gx:altitudeMode>
				</LookAt>
				<styleUrl>#m_red-pushpin</styleUrl>
				<Point>
					<gx:drawOrder>1</gx:drawOrder>
					<coordinates>79.90762423673463,13.14281612734296,0</coordinates>
				</Point>
			</Placemark>
			<Placemark>
				<name>36AS</name>
				<visibility>0</visibility>
				<LookAt>
					<longitude>79.33680262286339</longitude>
					<latitude>11.73825838810105</latitude>
					<altitude>0</altitude>
					<heading>0.5875989938588634</heading>
					<tilt>0</tilt>
					<range>237.892466968374</range>
					<gx:altitudeMode>relativeToSeaFloor</gx:altitudeMode>
				</LookAt>
				<styleUrl>#m_red-pushpin</styleUrl>
				<Point>
					<gx:drawOrder>1</gx:drawOrder>
					<coordinates>79.33685519552006,11.73803141319093,0</coordinates>
				</Point>
			</Placemark>
			<Placemark>
				<name>39AS</name>
				<visibility>0</visibility>
				<LookAt>
					<longitude>79.44405896392155</longitude>
					<latitude>10.66643298202972</latitude>
					<altitude>0</altitude>
					<heading>0.609282438903806</heading>
					<tilt>0</tilt>
					<range>286.8756092674712</range>
					<gx:altitudeMode>relativeToSeaFloor</gx:altitudeMode>
				</LookAt>
				<styleUrl>#m_red-pushpin</styleUrl>
				<Point>
					<gx:drawOrder>1</gx:drawOrder>
					<coordinates>79.44396145197118,10.66672008192935,0</coordinates>
				</Point>
			</Placemark>
			<Placemark>
				<name>40AS</name>
				<visibility>0</visibility>
				<LookAt>
					<longitude>78.05653718127662</longitude>
					<latitude>9.959292090209091</latitude>
					<altitude>0</altitude>
					<heading>0.3435924518788275</heading>
					<tilt>0</tilt>
					<range>166.6999405048686</range>
					<gx:altitudeMode>relativeToSeaFloor</gx:altitudeMode>
				</LookAt>
				<styleUrl>#m_red-pushpin</styleUrl>
				<Point>
					<gx:drawOrder>1</gx:drawOrder>
					<coordinates>78.05639670568907,9.959189752736741,0</coordinates>
				</Point>
			</Placemark>
			<Placemark>
				<name>43AS</name>
				<visibility>0</visibility>
				<LookAt>
					<longitude>80.4843321078107</longitude>
					<latitude>27.34860518220559</latitude>
					<altitude>0</altitude>
					<heading>0.4882546199534589</heading>
					<tilt>0</tilt>
					<range>241.5216403840718</range>
					<gx:altitudeMode>relativeToSeaFloor</gx:altitudeMode>
				</LookAt>
				<styleUrl>#m_red-pushpin</styleUrl>
				<Point>
					<gx:drawOrder>1</gx:drawOrder>
					<coordinates>80.48416402459927,27.34875294072328,0</coordinates>
				</Point>
			</Placemark>
		</Folder>
		<Folder>
			<name>Birthplace</name>
			<visibility>0</visibility>
			<Placemark>
				<name>AS1</name>
				<visibility>0</visibility>
				<LookAt>
					<longitude>76.65223433496401</longitude>
					<latitude>12.66615209025737</latitude>
					<altitude>0</altitude>
					<heading>-1.544576306045667</heading>
					<tilt>0</tilt>
					<range>2262.334599296417</range>
					<gx:altitudeMode>relativeToSeaFloor</gx:altitudeMode>
				</LookAt>
				<styleUrl>#m_ylw-pushpin</styleUrl>
				<Point>
					<gx:drawOrder>1</gx:drawOrder>
					<coordinates>76.64939539300285,12.66428630558145,0</coordinates>
				</Point>
			</Placemark>
			<Placemark>
				<name>AS2</name>
				<visibility>0</visibility>
				<LookAt>
					<longitude>79.85615332230962</longitude>
					<latitude>13.23806033456173</latitude>
					<altitude>0</altitude>
					<heading>-0.8366481060310971</heading>
					<tilt>0</tilt>
					<range>767.42335992861</range>
					<gx:altitudeMode>relativeToSeaFloor</gx:altitudeMode>
				</LookAt>
				<styleUrl>#m_ylw-pushpin</styleUrl>
				<Point>
					<gx:drawOrder>1</gx:drawOrder>
					<coordinates>79.85589094649063,13.23686651024624,0</coordinates>
				</Point>
			</Placemark>
			<Placemark>
				<name>AS3</name>
				<visibility>0</visibility>
				<LookAt>
					<longitude>79.80775045926649</longitude>
					<latitude>12.70808575034556</latitude>
					<altitude>0</altitude>
					<heading>-0.8480810193434505</heading>
					<tilt>0</tilt>
					<range>598.0815577988398</range>
					<gx:altitudeMode>relativeToSeaFloor</gx:altitudeMode>
				</LookAt>
				<styleUrl>#m_ylw-pushpin</styleUrl>
				<Point>
					<gx:drawOrder>1</gx:drawOrder>
					<coordinates>79.8068812599688,12.7074735193935,0</coordinates>
				</Point>
			</Placemark>
			<Placemark>
				<name>AS5</name>
				<visibility>0</visibility>
				<LookAt>
					<longitude>78.81317964679474</longitude>
					<latitude>10.67820650640136</latitude>
					<altitude>0</altitude>
					<heading>-1.036769566145524</heading>
					<tilt>0</tilt>
					<range>4388.512879951683</range>
					<gx:altitudeMode>relativeToSeaFloor</gx:altitudeMode>
				</LookAt>
				<styleUrl>#m_ylw-pushpin</styleUrl>
				<Point>
					<gx:drawOrder>1</gx:drawOrder>
					<coordinates>78.81041961720359,10.67768147293038,0</coordinates>
				</Point>
			</Placemark>
			<Placemark>
				<name>AS6</name>
				<visibility>0</visibility>
				<LookAt>
					<longitude>80.04778645102323</longitude>
					<latitude>13.18001262080036</latitude>
					<altitude>0</altitude>
					<heading>-0.7798951149738649</heading>
					<tilt>0</tilt>
					<range>1118.045880805493</range>
					<gx:altitudeMode>relativeToSeaFloor</gx:altitudeMode>
				</LookAt>
				<styleUrl>#m_ylw-pushpin</styleUrl>
				<Point>
					<gx:drawOrder>1</gx:drawOrder>
					<coordinates>80.04660902833616,13.17976173467389,0</coordinates>
				</Point>
			</Placemark>
			<Placemark>
				<name>AS7</name>
				<visibility>0</visibility>
				<LookAt>
					<longitude>79.56354215871072</longitude>
					<latitude>12.46790759392681</latitude>
					<altitude>0</altitude>
					<heading>-0.885769423875216</heading>
					<tilt>0</tilt>
					<range>793.3731964177782</range>
					<gx:altitudeMode>relativeToSeaFloor</gx:altitudeMode>
				</LookAt>
				<styleUrl>#m_ylw-pushpin</styleUrl>
				<Point>
					<gx:drawOrder>1</gx:drawOrder>
					<coordinates>79.5621908308464,12.46818304389022,0</coordinates>
				</Point>
			</Placemark>
			<Placemark>
				<name>AS11 AS12 AS13 AS18</name>
				<visibility>0</visibility>
				<LookAt>
					<longitude>79.90780895527561</longitude>
					<latitude>13.14302852906761</latitude>
					<altitude>0</altitude>
					<heading>-0.8081867341733688</heading>
					<tilt>0</tilt>
					<range>1385.776273863081</range>
					<gx:altitudeMode>relativeToSeaFloor</gx:altitudeMode>
				</LookAt>
				<styleUrl>#m_ylw-pushpin</styleUrl>
				<Point>
					<gx:drawOrder>1</gx:drawOrder>
					<coordinates>79.90704979329405,13.14229200093527,0</coordinates>
				</Point>
			</Placemark>
			<Placemark>
				<name>AS14</name>
				<visibility>0</visibility>
				<LookAt>
					<longitude>79.30520366184994</longitude>
					<latitude>10.96681628454673</latitude>
					<altitude>0</altitude>
					<heading>-0.9320892482774943</heading>
					<tilt>0</tilt>
					<range>3238.619457807693</range>
					<gx:altitudeMode>relativeToSeaFloor</gx:altitudeMode>
				</LookAt>
				<styleUrl>#m_ylw-pushpin</styleUrl>
				<Point>
					<gx:drawOrder>1</gx:drawOrder>
					<coordinates>79.30441528063352,10.97191501414524,0</coordinates>
				</Point>
			</Placemark>
			<Placemark>
				<name>AS15</name>
				<visibility>0</visibility>
				<LookAt>
					<longitude>79.45101854754999</longitude>
					<latitude>12.86074629241675</latitude>
					<altitude>0</altitude>
					<heading>-0.8959742830458927</heading>
					<tilt>0</tilt>
					<range>1208.723213954398</range>
					<gx:altitudeMode>relativeToSeaFloor</gx:altitudeMode>
				</LookAt>
				<styleUrl>#m_ylw-pushpin</styleUrl>
				<Point>
					<gx:drawOrder>1</gx:drawOrder>
					<coordinates>79.44881285063859,12.8604509469261,0</coordinates>
				</Point>
			</Placemark>
			<Placemark>
				<name>AS16</name>
				<visibility>0</visibility>
				<LookAt>
					<longitude>79.60357186819978</longitude>
					<latitude>12.44286820998941</latitude>
					<altitude>0</altitude>
					<heading>-0.8623944061782957</heading>
					<tilt>0</tilt>
					<range>1429.486489013544</range>
					<gx:altitudeMode>relativeToSeaFloor</gx:altitudeMode>
				</LookAt>
				<styleUrl>#m_ylw-pushpin</styleUrl>
				<Point>
					<gx:drawOrder>1</gx:drawOrder>
					<coordinates>79.60211226716299,12.44376851227303,0</coordinates>
				</Point>
			</Placemark>
			<Placemark>
				<name>AS17 AS23</name>
				<visibility>0</visibility>
				<LookAt>
					<longitude>79.44388342514129</longitude>
					<latitude>11.05709934809703</latitude>
					<altitude>0</altitude>
					<heading>-0.8924630556776407</heading>
					<tilt>0</tilt>
					<range>805.2964242137666</range>
					<gx:altitudeMode>relativeToSeaFloor</gx:altitudeMode>
				</LookAt>
				<styleUrl>#m_ylw-pushpin</styleUrl>
				<Point>
					<gx:drawOrder>1</gx:drawOrder>
					<coordinates>79.44383302365421,11.05729002922816,0</coordinates>
				</Point>
			</Placemark>
			<Placemark>
				<name>AS19</name>
				<visibility>0</visibility>
				<LookAt>
					<longitude>80.2779270178081</longitude>
					<latitude>13.05435855027467</latitude>
					<altitude>0</altitude>
					<heading>-0.715730748043913</heading>
					<tilt>0</tilt>
					<range>614.2662078583541</range>
					<gx:altitudeMode>relativeToSeaFloor</gx:altitudeMode>
				</LookAt>
				<styleUrl>#m_ylw-pushpin</styleUrl>
				<Point>
					<gx:drawOrder>1</gx:drawOrder>
					<coordinates>80.27644481731389,13.05405469736704,0</coordinates>
				</Point>
			</Placemark>
			<Placemark>
				<name>AS20 AS37</name>
				<visibility>0</visibility>
				<LookAt>
					<longitude>79.962665217984</longitude>
					<latitude>12.94783827293503</latitude>
					<altitude>0</altitude>
					<heading>-0.7866367013628399</heading>
					<tilt>0</tilt>
					<range>2474.117056401949</range>
					<gx:altitudeMode>relativeToSeaFloor</gx:altitudeMode>
				</LookAt>
				<styleUrl>#m_ylw-pushpin</styleUrl>
				<Point>
					<gx:drawOrder>1</gx:drawOrder>
					<coordinates>79.95911598237227,12.94529386409787,0</coordinates>
				</Point>
			</Placemark>
			<Placemark>
				<name>AS21</name>
				<visibility>0</visibility>
				<LookAt>
					<longitude>79.59178594213665</longitude>
					<latitude>12.39354511880089</latitude>
					<altitude>0</altitude>
					<heading>-0.8665952629903105</heading>
					<tilt>0</tilt>
					<range>626.4201336339669</range>
					<gx:altitudeMode>relativeToSeaFloor</gx:altitudeMode>
				</LookAt>
				<styleUrl>#m_ylw-pushpin</styleUrl>
				<Point>
					<gx:drawOrder>1</gx:drawOrder>
					<coordinates>79.59146521998643,12.39384273810193,0</coordinates>
				</Point>
			</Placemark>
			<Placemark>
				<name>AS22 AS25 AS26 AS27 AS30</name>
				<visibility>0</visibility>
				<LookAt>
					<longitude>79.32723660952088</longitude>
					<latitude>10.96357506521609</latitude>
					<altitude>0</altitude>
					<heading>-0.9278421809640538</heading>
					<tilt>0</tilt>
					<range>7795.331622186901</range>
					<gx:altitudeMode>relativeToSeaFloor</gx:altitudeMode>
				</LookAt>
				<styleUrl>#m_ylw-pushpin</styleUrl>
				<Point>
					<gx:drawOrder>1</gx:drawOrder>
					<coordinates>79.31041355186868,10.96314848540137,0</coordinates>
				</Point>
			</Placemark>
			<Placemark>
				<name>AS24</name>
				<visibility>0</visibility>
				<LookAt>
					<longitude>79.11408469076714</longitude>
					<latitude>10.87041750627002</latitude>
					<altitude>0</altitude>
					<heading>-0.9679878295032159</heading>
					<tilt>0</tilt>
					<range>865.6491718863317</range>
					<gx:altitudeMode>relativeToSeaFloor</gx:altitudeMode>
				</LookAt>
				<styleUrl>#m_ylw-pushpin</styleUrl>
				<Point>
					<gx:drawOrder>1</gx:drawOrder>
					<coordinates>79.11488523334431,10.87106018244299,0</coordinates>
				</Point>
			</Placemark>
			<Placemark>
				<name>AS28</name>
				<visibility>0</visibility>
				<LookAt>
					<longitude>77.56539141998984</longitude>
					<latitude>8.43604531734187</latitude>
					<altitude>0</altitude>
					<heading>-1.212758548984283</heading>
					<tilt>0</tilt>
					<range>1159.407247735267</range>
					<gx:altitudeMode>relativeToSeaFloor</gx:altitudeMode>
				</LookAt>
				<styleUrl>#m_ylw-pushpin</styleUrl>
				<Point>
					<gx:drawOrder>1</gx:drawOrder>
					<coordinates>77.56549710280436,8.437336004252309,0</coordinates>
				</Point>
			</Placemark>
			<Placemark>
				<name>AS29</name>
				<visibility>0</visibility>
				<LookAt>
					<longitude>79.30724710280683</longitude>
					<latitude>12.99019782759306</latitude>
					<altitude>0</altitude>
					<heading>-0.8849631290838559</heading>
					<tilt>0</tilt>
					<range>1836.901789158091</range>
					<gx:altitudeMode>relativeToSeaFloor</gx:altitudeMode>
				</LookAt>
				<styleUrl>#m_ylw-pushpin</styleUrl>
				<Point>
					<gx:drawOrder>1</gx:drawOrder>
					<coordinates>79.3066222722701,12.98816600172683,0</coordinates>
				</Point>
			</Placemark>
			<Placemark>
				<name>AS31</name>
				<visibility>0</visibility>
				<LookAt>
					<longitude>76.68108619738192</longitude>
					<latitude>12.42372693900586</latitude>
					<altitude>0</altitude>
					<heading>-1.467433322988916</heading>
					<tilt>0</tilt>
					<range>1205.344119078352</range>
					<gx:altitudeMode>relativeToSeaFloor</gx:altitudeMode>
				</LookAt>
				<styleUrl>#m_ylw-pushpin</styleUrl>
				<Point>
					<gx:drawOrder>1</gx:drawOrder>
					<coordinates>76.68108619738193,12.42372693900586,0</coordinates>
				</Point>
			</Placemark>
			<Placemark>
				<name>AS32</name>
				<visibility>0</visibility>
				<LookAt>
					<longitude>77.63524616041315</longitude>
					<latitude>9.512010896546579</latitude>
					<altitude>0</altitude>
					<heading>-1.304221572244348</heading>
					<tilt>0</tilt>
					<range>4108.432412514709</range>
					<gx:altitudeMode>relativeToSeaFloor</gx:altitudeMode>
				</LookAt>
				<styleUrl>#m_ylw-pushpin</styleUrl>
				<Point>
					<gx:drawOrder>1</gx:drawOrder>
					<coordinates>77.63166679743541,9.508165902532795,0</coordinates>
				</Point>
			</Placemark>
			<Placemark>
				<name>AS33 AS36</name>
				<visibility>0</visibility>
				<LookAt>
					<longitude>79.7371862114716</longitude>
					<latitude>12.91298851995639</latitude>
					<altitude>0</altitude>
					<heading>-0.9168401841191295</heading>
					<tilt>0</tilt>
					<range>4398.117836375813</range>
					<gx:altitudeMode>relativeToSeaFloor</gx:altitudeMode>
				</LookAt>
				<styleUrl>#m_ylw-pushpin</styleUrl>
				<Point>
					<gx:drawOrder>1</gx:drawOrder>
					<coordinates>79.73503402949102,12.91086611190023,0</coordinates>
				</Point>
			</Placemark>
			<Placemark>
				<name>AS34</name>
				<visibility>0</visibility>
				<LookAt>
					<longitude>79.76450748557659</longitude>
					<latitude>13.17242550154427</latitude>
					<altitude>0</altitude>
					<heading>-0.9109960973267426</heading>
					<tilt>0</tilt>
					<range>2383.437019268914</range>
					<gx:altitudeMode>relativeToSeaFloor</gx:altitudeMode>
				</LookAt>
				<styleUrl>#m_ylw-pushpin</styleUrl>
				<Point>
					<gx:drawOrder>1</gx:drawOrder>
					<coordinates>79.76309117749393,13.17291488582519,0</coordinates>
				</Point>
			</Placemark>
			<Placemark>
				<name>AS35</name>
				<visibility>0</visibility>
				<LookAt>
					<longitude>79.97782372767463</longitude>
					<latitude>12.61548165863709</latitude>
					<altitude>0</altitude>
					<heading>-0.8635698626290997</heading>
					<tilt>0</tilt>
					<range>2316.41483094243</range>
					<gx:altitudeMode>relativeToSeaFloor</gx:altitudeMode>
				</LookAt>
				<styleUrl>#m_ylw-pushpin</styleUrl>
				<Point>
					<gx:drawOrder>1</gx:drawOrder>
					<coordinates>79.97628763721221,12.61553434519262,0</coordinates>
				</Point>
			</Placemark>
			<Placemark>
				<name>AS38</name>
				<visibility>0</visibility>
				<LookAt>
					<longitude>79.38205838521687</longitude>
					<latitude>10.9634929162646</latitude>
					<altitude>0</altitude>
					<heading>-0.9861191578569023</heading>
					<tilt>0</tilt>
					<range>3296.159834650628</range>
					<gx:altitudeMode>relativeToSeaFloor</gx:altitudeMode>
				</LookAt>
				<styleUrl>#m_ylw-pushpin</styleUrl>
				<Point>
					<gx:drawOrder>1</gx:drawOrder>
					<coordinates>79.37383384015669,10.96005318211662,0</coordinates>
				</Point>
			</Placemark>
			<Placemark>
				<name>AS39</name>
				<visibility>0</visibility>
				<LookAt>
					<longitude>79.43439562639878</longitude>
					<latitude>10.67222429285996</latitude>
					<altitude>0</altitude>
					<heading>-0.9763130650386959</heading>
					<tilt>0</tilt>
					<range>8848.540952109062</range>
					<gx:altitudeMode>relativeToSeaFloor</gx:altitudeMode>
				</LookAt>
				<styleUrl>#m_ylw-pushpin</styleUrl>
				<Point>
					<gx:drawOrder>1</gx:drawOrder>
					<coordinates>79.443824924474,10.66697371295714,0</coordinates>
				</Point>
			</Placemark>
			<Placemark>
				<name>AS40 AS41</name>
				<visibility>0</visibility>
				<LookAt>
					<longitude>77.54913490733882</longitude>
					<latitude>8.685556498441651</latitude>
					<altitude>0</altitude>
					<heading>-1.293018430339036</heading>
					<tilt>0</tilt>
					<range>3696.894032766317</range>
					<gx:altitudeMode>relativeToSeaFloor</gx:altitudeMode>
				</LookAt>
				<styleUrl>#m_ylw-pushpin</styleUrl>
				<Point>
					<gx:drawOrder>1</gx:drawOrder>
					<coordinates>77.54391859331844,8.68243606851294,0</coordinates>
				</Point>
			</Placemark>
			<Placemark>
				<name>AS42</name>
				<visibility>0</visibility>
				<LookAt>
					<longitude>79.42709330651036</longitude>
					<latitude>12.54624193850056</latitude>
					<altitude>0</altitude>
					<heading>-0.9980512232610594</heading>
					<tilt>0</tilt>
					<range>3931.279082456384</range>
					<gx:altitudeMode>relativeToSeaFloor</gx:altitudeMode>
				</LookAt>
				<styleUrl>#m_ylw-pushpin</styleUrl>
				<Point>
					<gx:drawOrder>1</gx:drawOrder>
					<coordinates>79.42362293158568,12.5433196538246,0</coordinates>
				</Point>
			</Placemark>
			<Placemark>
				<name>AS43</name>
				<visibility>0</visibility>
				<LookAt>
					<longitude>80.1061028836055</longitude>
					<latitude>13.09204744350519</latitude>
					<altitude>0</altitude>
					<heading>-0.8485404921013696</heading>
					<tilt>0</tilt>
					<range>1072.407343231697</range>
					<gx:altitudeMode>relativeToSeaFloor</gx:altitudeMode>
				</LookAt>
				<styleUrl>#m_ylw-pushpin</styleUrl>
				<Point>
					<gx:drawOrder>1</gx:drawOrder>
					<coordinates>80.10292657485101,13.09271779777969,0</coordinates>
				</Point>
			</Placemark>
			<Placemark>
				<name>AS44</name>
				<visibility>0</visibility>
				<LookAt>
					<longitude>79.47100816845048</longitude>
					<latitude>12.63994500479025</latitude>
					<altitude>0</altitude>
					<heading>-0.981938235597865</heading>
					<tilt>0</tilt>
					<range>2537.937612870637</range>
					<gx:altitudeMode>relativeToSeaFloor</gx:altitudeMode>
				</LookAt>
				<styleUrl>#m_ylw-pushpin</styleUrl>
				<Point>
					<gx:drawOrder>1</gx:drawOrder>
					<coordinates>79.47000341094963,12.63895555665547,0</coordinates>
				</Point>
			</Placemark>
			<Placemark>
				<name>AS45</name>
				<visibility>0</visibility>
				<LookAt>
					<longitude>79.78048111474851</longitude>
					<latitude>12.79023215525044</latitude>
					<altitude>0</altitude>
					<heading>-0.9140429255059379</heading>
					<tilt>0</tilt>
					<range>2723.361672176904</range>
					<gx:altitudeMode>relativeToSeaFloor</gx:altitudeMode>
				</LookAt>
				<styleUrl>#m_ylw-pushpin</styleUrl>
				<Point>
					<gx:drawOrder>1</gx:drawOrder>
					<coordinates>79.77343903213368,12.78858269576829,0</coordinates>
				</Point>
			</Placemark>
			<Placemark>
				<name>AS46</name>
				<visibility>0</visibility>
				<LookAt>
					<longitude>79.0927069062909</longitude>
					<latitude>10.87909119814894</latitude>
					<altitude>0</altitude>
					<heading>-1.055131075678915</heading>
					<tilt>0</tilt>
					<range>1752.101159375526</range>
					<gx:altitudeMode>relativeToSeaFloor</gx:altitudeMode>
				</LookAt>
				<styleUrl>#m_ylw-pushpin</styleUrl>
				<Point>
					<gx:drawOrder>1</gx:drawOrder>
					<coordinates>79.08780660878698,10.87782060942057,0</coordinates>
				</Point>
			</Placemark>
		</Folder>
		<atom:link rel="app" href="https://www.google.com/earth/about/versions/#earth-pro" title="Google Earth Pro 7.3.7.1327"></atom:link>
	</Folder>
</Document>
</kml>